{"type": "FeatureCollection", "features": [ {"type": "Feature", "properties": {"norad_id": 36048, "name": "COSMOS 2251 DEB", "group": "cosmos-2251-debris", "lat": 23.00773058020636, "lon": 85.78370439281856, "alt_km": 783.3851266951506, "timestamp": "2025-12-27T03:58:44.543689+00:00", "meta": {"OBJECT_NAME": "COSMOS 2251 DEB", "OBJECT_ID": "1993-036AXK", "EPOCH": "2025-12-26T11:06:59.253120", "MEAN_MOTION": 14.37874614, "ECCENTRICITY": 0.0027119, "INCLINATION": 74.0571, "RA_OF_ASC_NODE": 274.0472, "ARG_OF_PERICENTER": 321.5675, "MEAN_ANOMALY": 158.955, "EPHEMERIS_TYPE": 0, "CLASSIFICATION_TYPE": "U", "NORAD_CAT_ID": 36048, "ELEMENT_SET_NO": 999, "REV_AT_EPOCH": 85699, "BSTAR": 0.00026847, "MEAN_MOTION_DOT": 7.87e-06, "MEAN_MOTION_DDOT": 0}, "tle": {"line1": "1 36048U 93036AXK 25360.46318580  .00000787  00000+0  26847-3 0  9994", "line2": "2 36048  74.0571 274.0472 0027119 321.5675 158.9550 14.37874614856997"}}, "geometry": {"type": "Point", "coordinates": [85.78370439281856, 23.00773058020636]}}, {"type": "Feature", "properties": {"norad_id": 36049, "name": "COSMOS 2251 DEB", "group": "cosmos-2251-debris", "lat": 73.63935441549675, "lon": 168.81026639775976, "alt_km": 678.6394313917008, "timestamp": "2025-12-27T03:58:44.543698+00:00", "meta": {"OBJECT_NAME": "COSMOS 2251 DEB", "OBJECT_ID": "1993-036AXL", "EPOCH": "2025-12-26T16:05:29.446080", "MEAN_MOTION": 14.62322708, "ECCENTRICITY": 0.0009772, "INCLINATION": 74.0312, "RA_OF_ASC_NODE": 92.4958, "ARG_OF_PERICENTER": 180.7099, "MEAN_ANOMALY": 179.4056, "EPHEMERIS_TYPE": 0, "CLASSIFICATION_TYPE": "U", "NORAD_CAT_ID": 36049, "ELEMENT_SET_NO": 999, "REV_AT_EPOCH": 85568, "BSTAR": 0.0013629, "MEAN_MOTION_DOT": 6.864e-05, "MEAN_MOTION_DDOT": 0}, "tle": {"line1": "1 36049U 93036AXL 25360.67047970  .00006864  00000+0  13629-2 0  9995", "line2": "2 36049  74.0312  92.4958 0009772 180.7099 179.4056 14.62322708855686"}}, "geometry": {"type": "Point", "coordinates": [168.81026639775976, 73.63935441549675]}}, {"type": "Feature", "properties": {"norad_id": 36050, "name": "COSMOS 2251 DEB", "group": "cosmos-2251-debris", "lat": 16.128509389988334, "lon": 169.3929678085055, "alt_km": 607.2616170790916, "timestamp": "2025-12-27T03:58:44.543707+00:00", "meta": {"OBJECT_NAME": "COSMOS 2251 DEB", "OBJECT_ID": "1993-036AXM", "EPOCH": "2025-12-23T18:20:06.375552", "MEAN_MOTION": 15.01191833, "ECCENTRICITY": 0.00883826, "INCLINATION": 74.0302, "RA_OF_ASC_NODE": 171.57, "ARG_OF_PERICENTER": 248.7055, "MEAN_ANOMALY": 110.468, "EPHEMERIS_TYPE": 0, "CLASSIFICATION_TYPE": "U", "NORAD_CAT_ID": 36050, "ELEMENT_SET_NO": 999, "REV_AT_EPOCH": 67200, "BSTAR": 0.00066513085, "MEAN_MOTION_DOT": 9.246e-05, "MEAN_MOTION_DDOT": 0}, "tle": {"line1": "1 36050U 93036AXM 25357.76396268  .00009246  00000+0  66513-3 0  9998", "line2": "2 36050  74.0302 171.5700 0088382 248.7055 110.4680 15.01191833672000"}}, "geometry": {"type": "Point", "coordinates": [169.3929678085055, 16.128509389988334]}}, {"type": "Feature", "properties": {"norad_id": 36053, "name": "COSMOS 2251 DEB", "group": "cosmos-2251-debris", "lat": 11.925565878558475, "lon": -58.50140041892868, "alt_km": 705.9175610731581, "timestamp": "2025-12-27T03:58:44.543716+00:00", "meta": {"OBJECT_NAME": "COSMOS 2251 DEB", "OBJECT_ID": "1993-036AXQ", "EPOCH": "2025-12-26T00:51:23.527872", "MEAN_MOTION": 14.57338547, "ECCENTRICITY": 0.00324806, "INCLINATION": 73.8704, "RA_OF_ASC_NODE": 127.1707, "ARG_OF_PERICENTER": 71.5947, "MEAN_ANOMALY": 288.8743, "EPHEMERIS_TYPE": 0, "CLASSIFICATION_TYPE": "U", "NORAD_CAT_ID": 36053, "ELEMENT_SET_NO": 999, "REV_AT_EPOCH": 87638, "BSTAR": 0.0014377554, "MEAN_MOTION_DOT": 6.535e-05, "MEAN_MOTION_DDOT": 0}, "tle": {"line1": "1 36053U 93036AXQ 25360.03568898  .00006535  00000+0  14378-2 0  9994", "line2": "2 36053  73.8704 127.1707 0032480  71.5947 288.8743 14.57338547876382"}}, "geometry": {"type": "Point", "coordinates": [-58.50140041892868, 11.925565878558475]}}, {"type": "Feature", "properties": {"norad_id": 36058, "name": "COSMOS 2251 DEB", "group": "cosmos-2251-debris", "lat": 8.052951924663608, "lon": 8.291960327621098, "alt_km": 717.8832202447538, "timestamp": "2025-12-27T03:58:44.543725+00:00", "meta": {"OBJECT_NAME": "COSMOS 2251 DEB", "OBJECT_ID": "1993-036AXV", "EPOCH": "2025-12-20T18:52:04.818432", "MEAN_MOTION": 14.58726339, "ECCENTRICITY": 0.00440828, "INCLINATION": 74.0229, "RA_OF_ASC_NODE": 18.1226, "ARG_OF_PERICENTER": 150.2394, "MEAN_ANOMALY": 210.1292, "EPHEMERIS_TYPE": 0, "CLASSIFICATION_TYPE": "U", "NORAD_CAT_ID": 36058, "ELEMENT_SET_NO": 999, "REV_AT_EPOCH": 66228, "BSTAR": 0.0002931852, "MEAN_MOTION_DOT": 1.357e-05, "MEAN_MOTION_DDOT": 0}, "tle": {"line1": "1 36058U 93036AXV 25354.78616688  .00001357  00000+0  29319-3 0  9994", "line2": "2 36058  74.0229  18.1226 0044082 150.2394 210.1292 14.58726339662289"}}, "geometry": {"type": "Point", "coordinates": [8.291960327621098, 8.052951924663608]}}, {"type": "Feature", "properties": {"norad_id": 36060, "name": "COSMOS 2251 DEB", "group": "cosmos-2251-debris", "lat": 52.15581007267025, "lon": 6.180828449480151, "alt_km": 757.7567849672851, "timestamp": "2025-12-27T03:58:44.543734+00:00", "meta": {"OBJECT_NAME": "COSMOS 2251 DEB", "OBJECT_ID": "1993-036AXX", "EPOCH": "2025-12-26T20:44:31.560288", "MEAN_MOTION": 14.42028331, "ECCENTRICITY": 0.0015663, "INCLINATION": 74.0274, "RA_OF_ASC_NODE": 208.3726, "ARG_OF_PERICENTER": 303.9859, "MEAN_ANOMALY": 55.9808, "EPHEMERIS_TYPE": 0, "CLASSIFICATION_TYPE": "U", "NORAD_CAT_ID": 36060, "ELEMENT_SET_NO": 999, "REV_AT_EPOCH": 85213, "BSTAR": 0.000301, "MEAN_MOTION_DOT": 9.63e-06, "MEAN_MOTION_DDOT": 0}, "tle": {"line1": "1 36060U 93036AXX 25360.86425417  .00000963  00000+0  30100-3 0  9993", "line2": "2 36060  74.0274 208.3726 0015663 303.9859  55.9808 14.42028331852139"}}, "geometry": {"type": "Point", "coordinates": [6.180828449480151, 52.15581007267025]}}, {"type": "Feature", "properties": {"norad_id": 36061, "name": "COSMOS 2251 DEB", "group": "cosmos-2251-debris", "lat": -52.75126154151881, "lon": 175.48635217870066, "alt_km": 812.3816708317545, "timestamp": "2025-12-27T03:58:44.543762+00:00", "meta": {"OBJECT_NAME": "COSMOS 2251 DEB", "OBJECT_ID": "1993-036AXY", "EPOCH": "2025-12-26T05:06:50.997600", "MEAN_MOTION": 14.33730546, "ECCENTRICITY": 0.0036999, "INCLINATION": 74.0257, "RA_OF_ASC_NODE": 335.0992, "ARG_OF_PERICENTER": 58.9018, "MEAN_ANOMALY": 301.5755, "EPHEMERIS_TYPE": 0, "CLASSIFICATION_TYPE": "U", "NORAD_CAT_ID": 36061, "ELEMENT_SET_NO": 999, "REV_AT_EPOCH": 65297, "BSTAR": 0.00033912, "MEAN_MOTION_DOT": 9.23e-06, "MEAN_MOTION_DDOT": 0}, "tle": {"line1": "1 36061U 93036AXY 25360.21309025  .00000923  00000+0  33912-3 0  9999", "line2": "2 36061  74.0257 335.0992 0036999  58.9018 301.5755 14.33730546652972"}}, "geometry": {"type": "Point", "coordinates": [175.48635217870066, -52.75126154151881]}}, {"type": "Feature", "properties": {"norad_id": 36073, "name": "COSMOS 2251 DEB", "group": "cosmos-2251-debris", "lat": 35.10525685225642, "lon": -52.268522953779424, "alt_km": 758.5861289031218, "timestamp": "2025-12-27T03:58:44.543771+00:00", "meta": {"OBJECT_NAME": "COSMOS 2251 DEB", "OBJECT_ID": "1993-036AYL", "EPOCH": "2025-12-18T03:58:06.481920", "MEAN_MOTION": 14.34959898, "ECCENTRICITY": 0.00240895, "INCLINATION": 74.0326, "RA_OF_ASC_NODE": 312.6126, "ARG_OF_PERICENTER": 19.0207, "MEAN_ANOMALY": 341.1839, "EPHEMERIS_TYPE": 0, "CLASSIFICATION_TYPE": "U", "NORAD_CAT_ID": 36073, "ELEMENT_SET_NO": 999, "REV_AT_EPOCH": 70285, "BSTAR": 0.0001893667, "MEAN_MOTION_DOT": 5.14e-06, "MEAN_MOTION_DDOT": 0}, "tle": {"line1": "1 36073U 93036AYL 25352.16535280  .00000514  00000+0  18937-3 0  9997", "line2": "2 36073  74.0326 312.6126 0024089  19.0207 341.1839 14.34959898702857"}}, "geometry": {"type": "Point", "coordinates": [-52.268522953779424, 35.10525685225642]}}, {"type": "Feature", "properties": {"norad_id": 36074, "name": "COSMOS 2251 DEB", "group": "cosmos-2251-debris", "lat": -73.97097254648934, "lon": -134.02259373533957, "alt_km": 772.2882987395269, "timestamp": "2025-12-27T03:58:44.543780+00:00", "meta": {"OBJECT_NAME": "COSMOS 2251 DEB", "OBJECT_ID": "1993-036AYM", "EPOCH": "2025-12-22T22:57:11.517120", "MEAN_MOTION": 14.43796912, "ECCENTRICITY": 0.0041956, "INCLINATION": 73.994, "RA_OF_ASC_NODE": 321.4388, "ARG_OF_PERICENTER": 50.2945, "MEAN_ANOMALY": 310.1898, "EPHEMERIS_TYPE": 0, "CLASSIFICATION_TYPE": "U", "NORAD_CAT_ID": 36074, "ELEMENT_SET_NO": 999, "REV_AT_EPOCH": 86057, "BSTAR": 0.001160749, "MEAN_MOTION_DOT": 3.969e-05, "MEAN_MOTION_DDOT": 0}, "tle": {"line1": "1 36074U 93036AYM 25356.95638330  .00003969  00000+0  11607-2 0  9992", "line2": "2 36074  73.9940 321.4388 0041956  50.2945 310.1898 14.43796912860575"}}, "geometry": {"type": "Point", "coordinates": [-134.02259373533957, -73.97097254648934]}}, {"type": "Feature", "properties": {"norad_id": 36366, "name": "COSMOS 2251 DEB", "group": "cosmos-2251-debris", "lat": 29.403138405943164, "lon": -104.00003472230952, "alt_km": 808.8454467190995, "timestamp": "2025-12-27T03:58:44.543789+00:00", "meta": {"OBJECT_NAME": "COSMOS 2251 DEB", "OBJECT_ID": "1993-036AYT", "EPOCH": "2025-12-26T09:24:42.807168", "MEAN_MOTION": 14.33500442, "ECCENTRICITY": 0.0089868, "INCLINATION": 74.0644, "RA_OF_ASC_NODE": 248.146, "ARG_OF_PERICENTER": 273.5362, "MEAN_ANOMALY": 85.5514, "EPHEMERIS_TYPE": 0, "CLASSIFICATION_TYPE": "U", "NORAD_CAT_ID": 36366, "ELEMENT_SET_NO": 999, "REV_AT_EPOCH": 86484, "BSTAR": 0.0012889, "MEAN_MOTION_DOT": 3.702e-05, "MEAN_MOTION_DDOT": 0}, "tle": {"line1": "1 36366U 93036AYT 25360.39216212  .00003702  00000+0  12889-2 0  9998", "line2": "2 36366  74.0644 248.1460 0089868 273.5362  85.5514 14.33500442864847"}}, "geometry": {"type": "Point", "coordinates": [-104.00003472230952, 29.403138405943164]}}]}